DMSP 5D-3 F16 (USA 172) 
1 28054U 03048A   26168.52928311 -.00000022  00000+0  12348-4 0  9994
2 28054  98.9890 192.3599 0007769 139.3109 337.7817 14.14483215169530
METEOSAT-9 (MSG-2)      
1 28912U 05049B   26167.83646461  .00000116  00000+0  00000+0 0  9996
2 28912   9.3610  54.1722 0001616 343.6222 214.0712  1.00271908  6999
DMSP 5D-3 F17 (USA 191) 
1 29522U 06050A   26168.52325278 -.00000010  00000+0  17259-4 0  9997
2 29522  98.7378 175.0865 0011160  58.5233 301.7030 14.14993096 12475
FENGYUN 3A              
1 32958U 08026A   26168.47023153  .00000052  00000+0  45131-4 0  9995
2 32958  98.6883 109.2981 0009605 122.9237 237.2865 14.19571203935448
GOES 14                 
1 35491U 09033A   26167.85555133 -.00000294  00000+0  00000+0 0  9998
2 35491   1.6897  83.0444 0001742  11.3150 260.7785  1.00110888  6584
DMSP 5D-3 F18 (USA 210) 
1 35951U 09057A   26168.49465461  .00000210  00000+0  13191-3 0  9996
2 35951  98.9037 149.2631 0009899 248.5334 111.4784 14.14896892859630
EWS-G2 (GOES 15)        
1 36411U 10008A   26167.94125012  .00000014  00000+0  00000+0 0  9993
2 36411   1.2775  82.8648 0005411  42.2478 182.6632  1.00275936 59637
COMS 1                  
1 36744U 10032A   26167.95048859  .00000055  00000+0  00000+0 0  9998
2 36744   4.8049  75.3571 0011488  11.7446 234.6783  0.99162509 51082
FENGYUN 3B              
1 37214U 10059A   26168.52479461  .00000091  00000+0  70147-4 0  9995
2 37214  98.9616 214.5410 0021892 182.9538 283.2813 14.14841651807471
SUOMI NPP               
1 37849U 11061A   26168.48151558  .00000049  00000+0  44099-4 0  9992
2 37849  98.7953 109.3555 0001516   6.0769 354.0425 14.19517399758487
METEOSAT-10 (MSG-3)     
1 38552U 12035B   26167.82753791 -.00000009  00000+0  00000+0 0  9996
2 38552   4.6712  61.0232 0001483 328.6551 173.6808  1.00276800 50850
METOP-B                 
1 38771U 12049A   26168.47119022  .00000086  00000+0  59332-4 0  9990
2 38771  98.6505 219.9647 0002222  19.1084 341.0176 14.21432818713300
INSAT-3D                
1 39216U 13038B   26167.85312465 -.00000343  00000+0  00000+0 0  9991
2 39216   1.9257  82.5426 0000562 311.1591 308.0485  1.00269278 47079
FENGYUN 3C              
1 39260U 13052A   26168.46785571  .00000067  00000+0  55000-4 0  9993
2 39260  98.4987 142.3298 0015246  26.8454 333.3507 14.15755063658609
METEOR-M 2              
1 40069U 14037A   26168.49755365  .00000102  00000+0  65982-4 0  9997
2 40069  98.5111 144.2251 0006772  43.5215 316.6496 14.21461300619369
HIMAWARI-8              
1 40267U 14060A   26167.85529133 -.00000278  00000+0  00000+0 0  9994
2 40267   0.0159   0.9040 0000992  88.3558 264.4292  1.00271684 42752
FENGYUN 2G              
1 40367U 14090A   26167.77588127 -.00000308  00000+0  00000+0 0  9991
2 40367   5.6375  72.8180 0004095 156.3445  54.8771  1.00272344 41998
METEOSAT-11 (MSG-4)     
1 40732U 15034A   26167.75807976  .00000061  00000+0  00000+0 0  9995
2 40732   3.2002  71.1126 0001751  11.1942 105.2805  1.00280240  7213
ELEKTRO-L 2             
1 41105U 15074A   26167.63786162 -.00000124  00000+0  00000+0 0  9995
2 41105   6.6931  70.5258 0000972 242.2635 167.2330  1.00270425 38506
SENTINEL-3A             
1 41335U 16011A   26168.49707273  .00000089  00000+0  54891-4 0  9994
2 41335  98.6250 235.8763 0001407 101.9830 258.1508 14.26740073538106
INSAT-3DR               
1 41752U 16054A   26167.94998808 -.00000080  00000+0  00000+0 0  9999
2 41752   0.1060  86.3723 0010603 187.4701  47.3357  1.00270883 35810
HIMAWARI-9              
1 41836U 16064A   26167.85529133 -.00000278  00000+0  00000+0 0  9993
2 41836   0.0194 277.6486 0000895 213.4845 222.6531  1.00270780 35203
GOES 16                 
1 41866U 16071A   26168.33738411 -.00000095  00000+0  00000+0 0  9996
2 41866   0.3422  85.5184 0000231 311.3635 245.4756  1.00271023 35105
FENGYUN 4A              
1 41882U 16077A   26167.78064797 -.00000361  00000+0  00000+0 0  9993
2 41882   2.3211  80.2786 0008712 153.4047  76.1551  1.00268694 34926
CYGFM05                 
1 41884U 16078A   26168.50009147  .00018834  00000+0  25526-3 0  9992
2 41884  34.9565 258.5181 0006996 154.5406 205.5664 15.56683854528806
CYGFM04                 
1 41885U 16078B   26168.46972396  .00023260  00000+0  26187-3 0  9996
2 41885  34.9311 226.3951 0006736 197.9260 162.1228 15.61527336529044
CYGFM02                 
1 41886U 16078C   26168.46986800  .00026695  00000+0  26691-3 0  9997
2 41886  34.9390 220.9215 0007757 198.9012 161.1427 15.64518286529211
CYGFM01                 
1 41887U 16078D   26168.48867062  .00019292  00000+0  25488-3 0  9996
2 41887  34.9393 259.6483 0006815 147.8131 212.3010 15.57361994528759
CYGFM08                 
1 41888U 16078E   26168.44763602  .00022020  00000+0  26257-3 0  9996
2 41888  34.9419 239.4927 0008396 179.8116 180.2613 15.60031319529013
CYGFM07                 
1 41890U 16078G   26168.47074759  .00021090  00000+0  25071-3 0  9999
2 41890  34.9433 227.6804 0007134 196.9121 163.1368 15.60130237529049
CYGFM03                 
1 41891U 16078H   26168.50574456  .00022204  00000+0  26395-3 0  9991
2 41891  34.9388 229.3849 0006550 185.0807 174.9853 15.60127486529027
